{
    "links": {
        "self": "http://www.neowsapp.com/rest/v1/neo/3879271?api_key=iIulBulltgU6a56xZRHN4H3l9WmuAYTsLGpBGhQ2"
    },
    "id": "3879271",
    "neo_reference_id": "3879271",
    "name": "(2019 UO1)",
    "designation": "2019 UO1",
    "nasa_jpl_url": "http://ssd.jpl.nasa.gov/sbdb.cgi?sstr=3879271",
    "absolute_magnitude_h": 25.0,
    "estimated_diameter": {
        "kilometers": {
            "estimated_diameter_min": 0.02658,
            "estimated_diameter_max": 0.0594346868
        },
        "meters": {
            "estimated_diameter_min": 26.58,
            "estimated_diameter_max": 59.4346868419
        },
        "miles": {
            "estimated_diameter_min": 0.0165160412,
            "estimated_diameter_max": 0.0369309908
        },
        "feet": {
            "estimated_diameter_min": 87.2047272,
            "estimated_diameter_max": 194.9956979785
        }
    },
    "is_potentially_hazardous_asteroid": false,
    "close_approach_data": [
        {
            "close_approach_date": "2012-02-04",
            "close_approach_date_full": "2012-Feb-04 23:47",
            "epoch_date_close_approach": 1328399220000,
            "relative_velocity": {
                "kilometers_per_second": "1.4479249874",
                "kilometers_per_hour": "5212.5299547674",
                "miles_per_hour": "3238.8634043942"
            },
            "miss_distance": {
                "astronomical": "0.1124602775",
                "lunar": "43.7470479475",
                "kilometers": "16823817.973608925",
                "miles": "10453835.737996165"
            },
            "orbiting_body": "Earth"
        },
        {
            "close_approach_date": "2019-10-14",
            "close_approach_date_full": "2019-Oct-14 16:28",
            "epoch_date_close_approach": 1571070480000,
            "relative_velocity": {
                "kilometers_per_second": "2.5290260902",
                "kilometers_per_hour": "9104.4939246347",
                "miles_per_hour": "5657.1784611154"
            },
            "miss_distance": {
                "astronomical": "0.1298170161",
                "lunar": "50.4988192629",
                "kilometers": "19420349.098315707",
                "miles": "12067245.3640904766"
            },
            "orbiting_body": "Earth"
        },
        {
            "close_approach_date": "2027-05-17",
            "close_approach_date_full": "2027-May-17 04:03",
            "epoch_date_close_approach": 1810526580000,
            "relative_velocity": {
                "kilometers_per_second": "1.4462356029",
                "kilometers_per_hour": "5206.4481704277",
                "miles_per_hour": "3235.0844201194"
            },
            "miss_distance": {
                "astronomical": "0.0679027362",
                "lunar": "26.4141643818",
                "kilometers": "10158104.702691894",
                "miles": "6311953.5730763772"
            },
            "orbiting_body": "Earth"
        }
    ],
    "orbital_data": {
        "orbit_id": "5",
        "orbit_determination_date": "2019-11-05 06:05:27",
        "first_observation_date": "2019-10-19",
        "last_observation_date": "2019-11-03",
        "data_arc_in_days": 15,
        "observations_used": 27,
        "orbit_uncertainty": "6",
        "minimum_orbit_intersection": ".0651175",
        "jupiter_tisserand_invariant": "5.655",
        "epoch_osculation": "2459000.5",
        "eccentricity": ".02562140922022923",
        "semi_major_axis": "1.098361418089487",
        "inclination": "2.767802644145164",
        "ascending_node_longitude": "218.9379761945034",
        "orbital_period": "420.4519108276831",
        "perihelion_distance": "1.070219850724905",
        "perihelion_argument": "336.1024468361438",
        "aphelion_distance": "1.126502985454069",
        "perihelion_time": "2458973.973167376879",
        "mean_anomaly": "22.71284657863648",
        "mean_motion": ".8562215814201436",
        "equinox": "J2000",
        "orbit_class": {
            "orbit_class_type": "AMO",
            "orbit_class_description": "Near-Earth asteroid orbits similar to that of 1221 Amor",
            "orbit_class_range": "1.017 AU < q (perihelion) < 1.3 AU"
        }
    },
    "is_sentry_object": false
}